NORAD_CAT_ID,OBJECT_NAME,OBJECT_TYPE,EPOCH,MEAN_MOTION,ECCENTRICITY,INCLINATION,RA_OF_ASC_NODE,ARG_OF_PERICENTER,MEAN_ANOMALY,BSTAR,MEAN_MOTION_DOT,MEAN_MOTION_DDOT,TLE_LINE0,TLE_LINE1,TLE_LINE2,SEMIMAJOR_AXIS,PERIOD,APOGEE,PERIGEE,DECAYED
52354.0,STARLINK-3876,PAYLOAD,2023-02-28 12:35:45,15.08860068,0.0001648,53.2142,120.401,101.4654,258.6523,0.0001833,2.632e-05,0.0,0 STARLINK-3876,1 52354U 22045Z   23059.52483222  .00002632  00000-0  18330-3 0  9990,2 52354  53.2142 120.4010 0001648 101.4654 258.6523 15.08860068 48944,6917.819,95.436,540.824,538.544,0.0
52354.0,STARLINK-3876,PAYLOAD,2023-02-28 14:11:08,15.08865564,0.0001663,53.213,120.1007,112.9923,247.1245,0.00040432,6.157e-05,0.0,0 STARLINK-3876,1 52354U 22045Z   23059.59107029  .00006157  00000-0  40432-3 0  9999,2 52354  53.2130 120.1007 0001663 112.9923 247.1245 15.08865564 48958,6917.802,95.436,540.818,538.517,0.0
52354.0,STARLINK-3876,PAYLOAD,2023-02-28 20:32:42,15.08830469,0.0002806,53.214,118.9109,75.5185,284.6119,-0.00016527,-2.917e-05,0.0,0 STARLINK-3876,1 52354U 22045Z   23059.85604858 -.00002917  00000-0 -16527-3 0  9990,2 52354  53.2140 118.9109 0002806  75.5185 284.6119 15.08830469 48997,6917.91,95.438,541.716,537.833,0.0
52354.0,STARLINK-3876,PAYLOAD,2023-03-01 02:54:15,15.08815363,0.0001262,53.2137,117.7279,89.4995,270.6142,-0.00036582,-6.101e-05,0.0,0 STARLINK-3876,1 52354U 22045Z   23060.12101333 -.00006101  00000-0 -36582-3 0  9994,2 52354  53.2137 117.7279 0001262  89.4995 270.6142 15.08815363 49039,6917.956,95.439,540.694,538.948,0.0
52354.0,STARLINK-3876,PAYLOAD,2023-03-01 07:40:25,15.08804278,0.0001075,53.214,116.8336,95.5059,264.6056,-0.00055132,-9.043e-05,0.0,0 STARLINK-3876,1 52354U 22045Z   23060.31974002 -.00009043  00000-0 -55132-3 0  9996,2 52354  53.2140 116.8336 0001075  95.5059 264.6056 15.08804278 49061,6917.99,95.44,540.598,539.111,0.0
52354.0,STARLINK-3876,PAYLOAD,2023-03-01 20:23:31,15.08807131,0.0001287,53.2131,114.4554,92.8656,267.2483,-0.00032712,-5.485e-05,0.0,0 STARLINK-3876,1 52354U 22045Z   23060.84966861 -.00005485  00000-0 -32712-3 0  9993,2 52354  53.2131 114.4554 0001287  92.8656 267.2483 15.08807131 49148,6917.981,95.44,540.736,538.956,0.0
52354.0,STARLINK-3876,PAYLOAD,2023-03-02 02:45:03,15.08815775,9.44e-05,53.2144,113.2611,84.6194,275.4906,-8.9643e-05,-1.713e-05,0.0,0 STARLINK-3876,1 52354U 22045Z   23061.11462899 -.00001713  00000-0 -89643-4 0  9992,2 52354  53.2144 113.2611 0000944  84.6194 275.4906 15.08815775 49186,6917.954,95.439,540.472,539.166,0.0
52354.0,STARLINK-3876,PAYLOAD,2023-03-02 12:17:22,15.08854824,9.14e-05,53.2133,111.4798,65.441,294.6677,0.0018966,0.00030038,0.0,0 STARLINK-3876,1 52354U 22045Z   23061.51207046  .00030038  00000-0  18966-2 0  9995,2 52354  53.2133 111.4798 0000914  65.4410 294.6677 15.08854824 49248,6917.835,95.437,540.332,539.068,0.0
52354.0,STARLINK-3876,PAYLOAD,2023-03-03 08:57:22,15.08894045,9.82e-05,53.2128,107.6136,71.9216,288.1883,0.0020481,0.00032506,0.0,0 STARLINK-3876,1 52354U 22045Z   23062.37317416  .00032506  00000-0  20481-2 0  9990,2 52354  53.2128 107.6136 0000982  71.9216 288.1883 15.08894045 49376,6917.715,95.434,540.26,538.901,0.0
52354.0,STARLINK-3876,PAYLOAD,2023-03-03 12:08:08,15.08901987,0.0001033,53.213,107.0186,68.8169,291.2934,0.0020465,0.00032488,0.0,0 STARLINK-3876,1 52354U 22045Z   23062.50564905  .00032488  00000-0  20465-2 0  9993,2 52354  53.2130 107.0186 0001033  68.8169 291.2934 15.08901987 49396,6917.691,95.434,540.271,538.841,0.0
52354.0,STARLINK-3876,PAYLOAD,2023-03-03 20:05:03,15.088735,0.0001039,53.2138,105.5323,76.3759,283.7349,0.00076702,0.00011951,0.0,0 STARLINK-3876,1 52354U 22045Z   23062.83684783  .00011951  00000-0  76702-3 0  9994,2 52354  53.2138 105.5323 0001039  76.3759 283.7349 15.08873500 49446,6917.778,95.435,540.362,538.924,0.0
52354.0,STARLINK-3876,PAYLOAD,2023-03-04 11:58:55,15.08856628,0.0001516,53.2128,102.5577,86.3272,273.7893,0.0020303,0.00032187,0.0,0 STARLINK-3876,1 52354U 22045Z   23063.49924961  .00032187  00000-0  20303-2 0  9991,2 52354  53.2128 102.5577 0001516  86.3272 273.7893 15.08856628 49540,6917.83,95.437,540.743,538.646,0.0
52354.0,STARLINK-3876,PAYLOAD,2023-03-04 19:55:50,15.08846955,0.0001076,53.213,101.0703,107.3578,252.7532,0.0012581,0.00019795,0.0,0 STARLINK-3876,1 52354U 22045Z   23063.83045119  .00019795  00000-0  12581-2 0  9997,2 52354  53.2130 101.0703 0001076 107.3578 252.7532 15.08846955 49596,6917.859,95.437,540.468,538.98,0.0
52354.0,STARLINK-3876,PAYLOAD,2023-03-05 02:17:24,15.08842215,0.0002426,53.2125,99.8805,98.8127,261.314,0.0014271,0.00022499,0.0,0 STARLINK-3876,1 52354U 22045Z   23064.09541754  .00022499  00000-0  14271-2 0  9995,2 52354  53.2125  99.8805 0002426  98.8127 261.3140 15.08842215 49632,6917.874,95.437,541.417,538.06,0.0
52354.0,STARLINK-3876,PAYLOAD,2023-03-05 08:38:56,15.0883675,0.0001671,53.2134,98.6914,102.5298,257.5881,0.00044565,6.811e-05,0.0,0 STARLINK-3876,1 52354U 22045Z   23064.36037714  .00006811  00000-0  44565-3 0  9991,2 52354  53.2134  98.6914 0001671 102.5298 257.5881 15.08836750 49673,6917.89,95.438,540.911,538.599,0.0
52354.0,STARLINK-3876,PAYLOAD,2023-03-05 19:46:39,15.08819159,0.0002145,53.2124,96.6121,75.5403,284.5827,0.0001431,1.989e-05,0.0,0 STARLINK-3876,1 52354U 22045Z   23064.82406888  .00001989  00000-0  14310-3 0  9990,2 52354  53.2124  96.6121 0002145  75.5403 284.5827 15.08819159 49746,6917.944,95.439,541.293,538.325,0.0
52354.0,STARLINK-3876,PAYLOAD,2023-03-06 08:29:45,15.08821582,0.0001823,53.2138,94.2289,111.2383,248.8804,0.00035917,5.43e-05,0.0,0 STARLINK-3876,1 52354U 22045Z   23065.35399714  .00005430  00000-0  35917-3 0  9999,2 52354  53.2138  94.2289 0001823 111.2383 248.8804 15.08821582 49827,6917.937,95.439,541.063,538.541,0.0
52354.0,STARLINK-3876,PAYLOAD,2023-03-07 01:58:59,15.08858625,0.0002001,53.215,90.9573,112.5536,247.5668,0.0011927,0.00018755,0.0,0 STARLINK-3876,1 52354U 22045Z   23066.08263363  .00018755  00000-0  11927-2 0  9998,2 52354  53.2150  90.9573 0002001 112.5536 247.5668 15.08858625 49937,6917.823,95.436,541.073,538.304,0.0
52354.0,STARLINK-3876,PAYLOAD,2023-03-07 08:20:31,15.08891599,0.0002076,53.2148,89.7676,114.3269,245.7941,0.002044,0.00032439,0.0,0 STARLINK-3876,1 52354U 22045Z   23066.34758490  .00032439  00000-0  20440-2 0  9992,2 52354  53.2148  89.7676 0002076 114.3269 245.7941 15.08891599 49974,6917.723,95.434,541.024,538.152,0.0
52354.0,STARLINK-3876,PAYLOAD,2023-03-07 17:52:49,15.08886812,0.0002028,53.214,87.986,73.7061,286.4154,0.0015038,0.00023757,0.0,0 STARLINK-3876,1 52354U 22045Z   23066.74502112  .00023757  00000-0  15038-2 0  9994,2 52354  53.2140  87.9860 0002028  73.7061 286.4154 15.08886812 50035,6917.737,95.435,541.005,538.199,0.0
52354.0,STARLINK-3876,PAYLOAD,2023-03-08 01:49:45,15.08844267,0.0001638,53.2144,86.4984,88.47,271.648,-9.4674e-05,-1.795e-05,0.0,0 STARLINK-3876,1 52354U 22045Z   23067.07621926 -.00001795  00000-0 -94674-4 0  9991,2 52354  53.2144  86.4984 0001638  88.4700 271.6480 15.08844267 50080,6917.867,95.437,540.865,538.599,0.0
52354.0,STARLINK-3876,PAYLOAD,2023-03-08 17:43:36,15.08862036,0.0001776,53.2139,83.5233,86.0632,274.0563,0.002087,0.00033103,0.0,0 STARLINK-3876,1 52354U 22045Z   23067.73862260  .00033103  00000-0  20870-2 0  9993,2 52354  53.2139  83.5233 0001776  86.0632 274.0563 15.08862036 50184,6917.813,95.436,540.907,538.449,0.0
52354.0,STARLINK-3876,PAYLOAD,2023-03-09 06:26:42,15.08847023,0.0001958,53.2142,81.1455,90.6915,269.4302,0.00056083,8.651e-05,0.0,0 STARLINK-3876,1 52354U 22045Z   23068.26854281  .00008651  00000-0  56083-3 0  9992,2 52354  53.2142  81.1455 0001958  90.6915 269.4302 15.08847023 50262,6917.859,95.437,541.078,538.369,0.0
52354.0,STARLINK-3876,PAYLOAD,2023-03-09 17:34:23,15.08848694,0.0001802,53.2134,79.0571,79.9541,280.1654,0.0006041,9.342e-05,0.0,0 STARLINK-3876,1 52354U 22045Z   23068.73222077  .00009342  00000-0  60410-3 0  9993,2 52354  53.2134  79.0571 0001802  79.9541 280.1654 15.08848694 50334,6917.854,95.437,540.965,538.472,0.0
52354.0,STARLINK-3876,PAYLOAD,2023-03-10 04:42:05,15.08843092,0.0001815,53.2141,76.982,88.9827,271.1373,0.00017709,2.532e-05,0.0,0 STARLINK-3876,1 52354U 22045Z   23069.19590177  .00002532  00000-0  17709-3 0  9990,2 52354  53.2141  76.9820 0001815  88.9827 271.1373 15.08843092 50409,6917.871,95.437,540.992,538.48,0.0
52354.0,STARLINK-3876,PAYLOAD,2023-03-10 09:28:15,15.08828155,0.0002065,53.2138,76.0891,67.3199,292.8011,-0.00016329,-2.885e-05,0.0,0 STARLINK-3876,1 52354U 22045Z   23069.39462735 -.00002885  00000-0 -16329-3 0  9990,2 52354  53.2138  76.0891 0002065  67.3199 292.8011 15.08828155 50430,6917.917,95.438,541.21,538.353,0.0
52354.0,STARLINK-3876,PAYLOAD,2023-03-10 17:25:12,15.08806296,0.0002019,53.214,74.6029,86.3643,273.758,-0.00050755,-8.349e-05,0.0,0 STARLINK-3876,1 52354U 22045Z   23069.72584075 -.00008349  00000-0 -50755-3 0  9991,2 52354  53.2140  74.6029 0002019  86.3643 273.7580 15.08806296 50480,6917.983,95.44,541.245,538.452,0.0
52354.0,STARLINK-3876,PAYLOAD,2023-03-11 06:08:18,15.08812502,0.0001415,53.2151,72.2239,90.497,269.6184,0.00016633,2.358e-05,0.0,0 STARLINK-3876,1 52354U 22045Z   23070.25576864  .00002358  00000-0  16633-3 0  9997,2 52354  53.2151  72.2239 0001415  90.4970 269.6184 15.08812502 50567,6917.964,95.439,540.808,538.851,0.0
52354.0,STARLINK-3876,PAYLOAD,2023-03-11 07:43:41,15.08816577,0.0001581,53.2143,71.926,86.8032,273.3141,0.00078498,0.00012219,0.0,0 STARLINK-3876,1 52354U 22045Z   23070.32201048  .00012219  00000-0  78498-3 0  9998,2 52354  53.2143  71.9260 0001581  86.8032 273.3141 15.08816577 50572,6917.952,95.439,540.911,538.723,0.0
52354.0,STARLINK-3876,PAYLOAD,2023-03-11 23:37:33,15.08855376,0.0001614,53.2154,68.9531,83.4192,276.6984,0.0015887,0.00025097,0.0,0 STARLINK-3876,1 52354U 22045Z   23070.98441037  .00025097  00000-0  15887-2 0  9994,2 52354  53.2154  68.9531 0001614  83.4192 276.6984 15.08855376 50670,6917.833,95.437,540.815,538.582,0.0
